<<<<<<< .mine
COSMOS 2450             
1 34871U 09022A   09145.20018692  .00297629  57679-5  14191-3 0  1167
2 34871  67.1393  13.1141 0113407  50.5855  64.0950 16.07574918  4094
PROGRESS-M 02M          
1 34905U 09024A   09144.53972222  .00013070  00000-0  97770-4 0   273
2 34905  51.6402  68.2180 0009738  38.8851 305.4479 15.73029767602227
PROTOSTAR 2             
1 34941U 09027A   09141.25573551 -.00000082  00000-0  00000-0 0    89
2 34941   5.0551 257.1012 2417627   0.1097 322.9940  1.38804568    72
BREEZE-M R/B            
1 34942U 09027B   09141.12708912 -.00000082  00000-0  00000-0 0   111
2 34942   8.3482 256.0428 3471448   1.3177 328.5460  1.57275835    63
BREEZE-M DEB [TANK]     
1 34943U 09027C   09144.41776590 -.00000265  00000-0  00000+0 0    71
2 34943  49.1705 254.0760 6741569   0.4475 359.8745  2.91747066   242
2009-028A               
1 35001U 09028A   09145.10710468  .00002114  00000-0  59383-4 0    85
2 35001  40.4573  18.6654 0025893 347.5027  12.5143 15.38743441   791
2009-028B               
1 35002U 09028B   09144.90990976  .00002313  00000-0  62759-4 0   146
2 35002  40.4692  19.8000 0027379 348.8142  11.2059 15.39524527   756
2009-028C               
1 35003U 09028C   09144.90904797  .00001437  00000-0  40897-4 0   126
2 35003  40.4718  19.8008 0029266 352.0610   7.9737 15.39792999   764
2009-028D               
1 35004U 09028D   09142.05521918  .00003100  00000-0  80969-4 0   146
2 35004  40.4621  36.8833 0029384 332.0576  27.8660 15.39866567   313
2009-028E               
1 35005U 09028E   09144.90939597  .00003898  00000-0  10095-3 0   134
2 35005  40.4774  19.8167 0028227 350.7103   9.3186 15.39695916   756
2009-029A               
1 35008U 09029A   09145.20440550  .00000395  00000-0  00000+0 0    93
2 35008  62.8368 157.4985 7310592 290.2667  91.9896  2.22916918    78
2009-029B               
1 35009U 09029B   09144.27352265  .00001255 -12155-5  00000+0 0    68
2 35009  62.8402 157.6512 7342018 289.9073  74.9141  2.24104995    47
=======
EUTELSAT W2A            
1 34710U 09016A   09121.88581750  .00000079  00000-0  00000+0 0   329
2 34710   0.0580 289.7925 0006835 307.5993 304.4665  1.00770180   349
BREEZE-M R/B            
1 34711U 09016B   09121.98127739 -.00000077  00000-0  10000-3 0   160
2 34711  20.9763  69.5633 5943574  14.8677 356.8106  2.20370916  8644
BREEZE-M DEB [TANK]     
1 34712U 09016C   09122.49155214  .00002591  00000-0  48471-3 0   230
2 34712  46.0880  50.6058 5232095  16.9025 355.4229  5.23421863  1508
BEIDOU 2B               
1 34779U 09018A   09121.89887024 -.00000195  00000-0  10000-3 0    77
2 34779   0.9473 270.7899 0002804 104.6427 252.7641  1.00272179   360
CZ-3C R/B               
1 34780U 09018B   09121.10139661  .00000715  00000-0  30363-3 0   172
2 34780  20.6547  79.1816 7273249 190.8655 134.2823  2.27787768   386
RISAT 2                 
1 34807U 09019A   09122.84552038  .00001816  00000-0  61667-4 0   593
2 34807  41.2135  92.7073 0105923  95.6279 348.0613 15.28890134  1968
ANUSAT                  
1 34808U 09019B   09122.84356600  .00003214  00000-0  10000-3 0   409
2 34808  41.2101  92.6878 0108469  95.3815 347.9516 15.29457571  1960
PSLV R/B                
1 34809U 09019C   09122.51469627  .00000270  00000-0  21406-4 0   231
2 34809  41.1004  95.4336 0075340  76.6374 284.2831 15.19861010  1919
SICRAL 1B               
1 34810U 09020A   09121.35798141  .00000092  00000-0  10000-3 0    84
2 34810   0.0526  84.4126 0010474  81.2858 194.3297  1.00451290   191
BLOCK DM-SL R/B         
1 34811U 09020B   09121.41994092 -.00000070  00000-0  10000-3 0   127
2 34811   0.0206 177.1834 4753813 136.1615  15.7559  1.81488058   209
BLOCK DM-SL DEB         
1 34836U 09020C   09111.41767703 -.00000037  00000-0  10000-3 0    66
2 34836   0.3504 315.7812 4689752 355.9365 321.5710  1.81221622    17
BLOCK DM-SL DEB         
1 34837U 09020D   09114.25672245 -.00000037  00000-0  10000-3 0    68
2 34837   0.0047 246.4705 4746145  65.9167  16.2416  1.81496262    77
BLOCK DM-SL DEB         
1 34838U 09020E   09111.30317163 -.00000036  00000-0  10000-3 0    33
2 34838   0.0594 107.2180 4715582 205.2182 246.6222  1.81423006    17
YAOGAN 6                
1 34839U 09021A   09122.79759608  .00000536  00000-0  29946-4 0   432
2 34839  97.6346 191.3570 0000865 169.4587 329.6728 15.17824925  1629
CZ-2C R/B               
1 34840U 09021B   09122.43798881  .00000508  00000-0  23941-4 0   158
2 34840  97.6021 190.9228 0110503 285.9388  72.9729 15.19436139  1560
CZ-2C DEB               
1 34841U 09021C   09122.77507326  .00000701  00000-0  55077-4 0   147
2 34841  97.8325 191.2631 0112971 186.6370 173.3391 14.99532343  1596
CZ-2C DEB               
1 34842U 09021D   09122.15652220  .00020099  00000-0  32100-3 0   136
2 34842  97.3924 190.7914 0142889 278.0821  80.4353 15.42353143  1542
CZ-2C DEB               
1 34843U 09021E   09122.14809038  .00024220  00000-0  35993-3 0   174
2 34843  97.8192 191.3221 0146267 280.2873  78.1992 15.43687594  1543
CZ-2C DEB               
1 34844U 09021F   09121.19250119 -.00000263  00000-0 -15160-4 0    54
2 34844  97.4174 189.2116 0119919 185.8557 174.1282 14.96399906  1141
COSMOS 2450             
1 34871U 09022A   09122.87851001  .00226006  56842-5  12490-3 0   176
2 34871  67.1439  88.1951 0132563  63.1444 341.5110 16.02296813   518
SL-4 R/B                
1 34872U 09022B   09122.85473444  .03112812  59931-5  34423-3 0   192
2 34872  67.1378  88.1977 0085441  85.2683 275.8698 16.24123766   511
>>>>>>> .r148
